{
  "type": "FeatureCollection",
  "features": [
    {
      "type": "Feature",
      "properties": {
        "norad_id": 64694,
        "name": "GOSAT-GW (IBUKI GW)",
        "group": "resource",
        "lat": -39.61825969226638,
        "lon": 101.30357563044655,
        "alt_km": 676.1074159669552,
        "timestamp": "2025-12-18T14:52:07.688461+00:00",
        "meta_object_name": "GOSAT-GW (IBUKI GW)",
        "meta_object_id": "2025-141A",
        "meta_epoch": "2025-12-18T07:19:26.898816",
        "meta_mean_motion": 14.67563725,
        "meta_eccentricity": 0.00014432,
        "meta_inclination": 98.0433,
        "meta_ra_of_asc_node": 287.7172,
        "meta_arg_of_pericenter": 83.5867,
        "meta_mean_anomaly": 276.5503,
        "meta_ephemeris_type": 0,
        "meta_classification_type": "U",
        "meta_norad_cat_id": 64694,
        "meta_element_set_no": 999,
        "meta_rev_at_epoch": 2531,
        "meta_bstar": 0.0001284122,
        "meta_mean_motion_dot": 6.81e-06,
        "meta_mean_motion_ddot": 0,
        "tle_line1": "1 64694U 25141A   25352.30517244  .00000681  00000+0  12841-3 0  9998",
        "tle_line2": "2 64694  98.0433 287.7172 0001443  83.5867 276.5503 14.67563725 25316"
      },
      "geometry": {
        "type": "Point",
        "coordinates": [
          101.30357563044655,
          -39.61825969226638
        ]
      }
    },
    {
      "type": "Feature",
      "properties": {
        "norad_id": 64876,
        "name": "IONOSFERA-M 3",
        "group": "resource",
        "lat": -31.909281541656885,
        "lon": -40.28709388324957,
        "alt_km": 826.2984809305517,
        "timestamp": "2025-12-18T14:52:07.688473+00:00",
        "meta_object_name": "IONOSFERA-M 3",
        "meta_object_id": "2025-155A",
        "meta_epoch": "2025-12-18T06:34:24.845952",
        "meta_mean_motion": 14.21442361,
        "meta_eccentricity": 0.00020857,
        "meta_inclination": 98.579,
        "meta_ra_of_asc_node": 313.9835,
        "meta_arg_of_pericenter": 51.0295,
        "meta_mean_anomaly": 309.1069,
        "meta_ephemeris_type": 0,
        "meta_classification_type": "U",
        "meta_norad_cat_id": 64876,
        "meta_element_set_no": 999,
        "meta_rev_at_epoch": 2070,
        "meta_bstar": 4.1317151e-05,
        "meta_mean_motion_dot": 4.8e-07,
        "meta_mean_motion_ddot": 0,
        "tle_line1": "1 64876U 25155A   25352.27389868  .00000048  00000+0  41317-4 0  9998",
        "tle_line2": "2 64876  98.5790 313.9835 0002085  51.0295 309.1069 14.21442361 20705"
      },
      "geometry": {
        "type": "Point",
        "coordinates": [
          -40.28709388324957,
          -31.909281541656885
        ]
      }
    },
    {
      "type": "Feature",
      "properties": {
        "norad_id": 64877,
        "name": "IONOSFERA-M 4",
        "group": "resource",
        "lat": 31.002311656463906,
        "lon": 139.44334143100278,
        "alt_km": 818.7546842559186,
        "timestamp": "2025-12-18T14:52:07.688483+00:00",
        "meta_object_name": "IONOSFERA-M 4",
        "meta_object_id": "2025-155B",
        "meta_epoch": "2025-12-18T07:24:54.188064",
        "meta_mean_motion": 14.21443582,
        "meta_eccentricity": 0.00014707,
        "meta_inclination": 98.5788,
        "meta_ra_of_asc_node": 313.9371,
        "meta_arg_of_pericenter": 58.1675,
        "meta_mean_anomaly": 301.9646,
        "meta_ephemeris_type": 0,
        "meta_classification_type": "U",
        "meta_norad_cat_id": 64877,
        "meta_element_set_no": 999,
        "meta_rev_at_epoch": 2070,
        "meta_bstar": 4.4211805e-05,
        "meta_mean_motion_dot": 5.4e-07,
        "meta_mean_motion_ddot": 0,
        "tle_line1": "1 64877U 25155B   25352.30896051  .00000054  00000+0  44212-4 0  9994",
        "tle_line2": "2 64877  98.5788 313.9371 0001470  58.1675 301.9646 14.21443582 20702"
      },
      "geometry": {
        "type": "Point",
        "coordinates": [
          139.44334143100278,
          31.002311656463906
        ]
      }
    },
    {
      "type": "Feature",
      "properties": {
        "norad_id": 64899,
        "name": "MICROCARB",
        "group": "resource",
        "lat": -65.9098784660482,
        "lon": 86.20826749847656,
        "alt_km": 673.6064913961918,
        "timestamp": "2025-12-18T14:52:07.688493+00:00",
        "meta_object_name": "MICROCARB",
        "meta_object_id": "2025-156A",
        "meta_epoch": "2025-12-18T05:23:11.464800",
        "meta_mean_motion": 14.72066066,
        "meta_eccentricity": 0.00174329,
        "meta_inclination": 98.002,
        "meta_ra_of_asc_node": 67.4818,
        "meta_arg_of_pericenter": 128.175,
        "meta_mean_anomaly": 232.1031,
        "meta_ephemeris_type": 0,
        "meta_classification_type": "U",
        "meta_norad_cat_id": 64899,
        "meta_element_set_no": 999,
        "meta_rev_at_epoch": 2134,
        "meta_bstar": 0.00010062638,
        "meta_mean_motion_dot": 5.84e-06,
        "meta_mean_motion_ddot": 0,
        "tle_line1": "1 64899U 25156A   25352.22443825  .00000584  00000+0  10063-3 0  9991",
        "tle_line2": "2 64899  98.0020  67.4818 0017432 128.1750 232.1031 14.72066066 21342"
      },
      "geometry": {
        "type": "Point",
        "coordinates": [
          86.20826749847656,
          -65.9098784660482
        ]
      }
    },
    {
      "type": "Feature",
      "properties": {
        "norad_id": 64900,
        "name": "CO3D 3",
        "group": "resource",
        "lat": -82.40230655231771,
        "lon": 147.1317793258334,
        "alt_km": 513.5102869787097,
        "timestamp": "2025-12-18T14:52:07.688503+00:00",
        "meta_object_name": "CO3D 3",
        "meta_object_id": "2025-156B",
        "meta_epoch": "2025-12-18T07:21:31.892832",
        "meta_mean_motion": 15.20210832,
        "meta_eccentricity": 0.00013822,
        "meta_inclination": 97.4346,
        "meta_ra_of_asc_node": 68.5943,
        "meta_arg_of_pericenter": 84.5738,
        "meta_mean_anomaly": 275.5654,
        "meta_ephemeris_type": 0,
        "meta_classification_type": "U",
        "meta_norad_cat_id": 64900,
        "meta_element_set_no": 999,
        "meta_rev_at_epoch": 2205,
        "meta_bstar": 0.00017093308,
        "meta_mean_motion_dot": 3.635e-05,
        "meta_mean_motion_ddot": 0,
        "tle_line1": "1 64900U 25156B   25352.30661913  .00003635  00000+0  17093-3 0  9993",
        "tle_line2": "2 64900  97.4346  68.5943 0001382  84.5738 275.5654 15.20210832 22055"
      },
      "geometry": {
        "type": "Point",
        "coordinates": [
          147.1317793258334,
          -82.40230655231771
        ]
      }
    },
    {
      "type": "Feature",
      "properties": {
        "norad_id": 64901,
        "name": "CO3D 4",
        "group": "resource",
        "lat": -82.53097588118672,
        "lon": 153.7890692461137,
        "alt_km": 512.5975844212353,
        "timestamp": "2025-12-18T14:52:07.688513+00:00",
        "meta_object_name": "CO3D 4",
        "meta_object_id": "2025-156C",
        "meta_epoch": "2025-12-18T05:46:59.027808",
        "meta_mean_motion": 15.20219527,
        "meta_eccentricity": 0.00012052,
        "meta_inclination": 97.4345,
        "meta_ra_of_asc_node": 68.5296,
        "meta_arg_of_pericenter": 177.693,
        "meta_mean_anomaly": 182.4311,
        "meta_ephemeris_type": 0,
        "meta_classification_type": "U",
        "meta_norad_cat_id": 64901,
        "meta_element_set_no": 999,
        "meta_rev_at_epoch": 2204,
        "meta_bstar": 0.00026223677,
        "meta_mean_motion_dot": 5.616e-05,
        "meta_mean_motion_ddot": 0,
        "tle_line1": "1 64901U 25156C   25352.24096097  .00005616  00000+0  26224-3 0  9999",
        "tle_line2": "2 64901  97.4345  68.5296 0001205 177.6930 182.4311 15.20219527 22043"
      },
      "geometry": {
        "type": "Point",
        "coordinates": [
          153.7890692461137,
          -82.53097588118672
        ]
      }
    },
    {
      "type": "Feature",
      "properties": {
        "norad_id": 64902,
        "name": "CO3D 2",
        "group": "resource",
        "lat": 83.44906652980916,
        "lon": -17.396445826171643,
        "alt_km": 327.8924647200811,
        "timestamp": "2025-12-18T14:52:07.688524+00:00",
        "meta_object_name": "CO3D 2",
        "meta_object_id": "2025-156D",
        "meta_epoch": "2025-12-17T16:22:38.080416",
        "meta_mean_motion": 15.1961406,
        "meta_eccentricity": 0.03739507,
        "meta_inclination": 96.5359,
        "meta_ra_of_asc_node": 68.5306,
        "meta_arg_of_pericenter": 43.1546,
        "meta_mean_anomaly": 319.8361,
        "meta_ephemeris_type": 0,
        "meta_classification_type": "U",
        "meta_norad_cat_id": 64902,
        "meta_element_set_no": 999,
        "meta_rev_at_epoch": 2195,
        "meta_bstar": -1.8482e-06,
        "meta_mean_motion_dot": -7.34e-06,
        "meta_mean_motion_ddot": 1.361317e-06,
        "tle_line1": "1 64902U 25156D   25351.68238519 -.00000734  13613-5 -18482-5 0  9991",
        "tle_line2": "2 64902  96.5359  68.5306 0373950  43.1546 319.8361 15.19614060 21959"
      },
      "geometry": {
        "type": "Point",
        "coordinates": [
          -17.396445826171643,
          83.44906652980916
        ]
      }
    }
  ]
}